[{"OBJECT_NAME":"STARLINK-2303","OBJECT_ID":"2021-024E","EPOCH":"2026-03-09T20:52:04.087200","MEAN_MOTION":15.30130194,"ECCENTRICITY":0.0002126,"INCLINATION":53.1598,"RA_OF_ASC_NODE":331.617,"ARG_OF_PERICENTER":54.6031,"MEAN_ANOMALY":305.5168,"EPHEMERIS_TYPE":0,"CLASSIFICATION_TYPE":"U","NORAD_CAT_ID":47981,"ELEMENT_SET_NO":999,"REV_AT_EPOCH":27465,"BSTAR":-0.00089649618,"MEAN_MOTION_DOT":-0.00026761,"MEAN_MOTION_DDOT":0},{"OBJECT_NAME":"YAM-7","OBJECT_ID":"2024-149AN","EPOCH":"2026-03-09T17:13:55.117920","MEAN_MOTION":15.30304554,"ECCENTRICITY":0.00019733,"INCLINATION":97.3828,"RA_OF_ASC_NODE":149.4631,"ARG_OF_PERICENTER":296.5121,"MEAN_ANOMALY":63.5918,"EPHEMERIS_TYPE":0,"CLASSIFICATION_TYPE":"U","NORAD_CAT_ID":60504,"ELEMENT_SET_NO":999,"REV_AT_EPOCH":8683,"BSTAR":0.00030984439,"MEAN_MOTION_DOT":9.009e-5,"MEAN_MOTION_DDOT":0}]
